ONEWEB-0228             
1 48780U 21045P   24259.90844966 -.00000107  00000+0 -31726-3 0  9998
2 48780  87.9087  26.3936 0001713 102.9070 257.2252 13.15550023160274
